NORAD_CAT_ID,OBJECT_NAME,OBJECT_TYPE,EPOCH,MEAN_MOTION,ECCENTRICITY,INCLINATION,RA_OF_ASC_NODE,ARG_OF_PERICENTER,MEAN_ANOMALY,BSTAR,MEAN_MOTION_DOT,MEAN_MOTION_DDOT,TLE_LINE0,TLE_LINE1,TLE_LINE2,SEMIMAJOR_AXIS,PERIOD,APOGEE,PERIGEE,DECAYED
54805.0,STARLINK-5417,PAYLOAD,2024-03-07 09:44:23,15.08835581,0.0001421,53.2172,76.1773,97.8216,262.2937,8.8973e-05,1.128e-05,0.0,0 STARLINK-5417,1 54805U 22175AZ  24067.40582278  .00001128  00000-0  88973-4 0  9995,2 54805  53.2172  76.1773 0001421  97.8216 262.2937 15.08835581 69589,6917.894,95.438,540.742,538.776,0.0
54805.0,STARLINK-5417,PAYLOAD,2024-03-08 07:59:46,15.08843141,0.0001399,53.2169,72.0144,90.0171,270.0981,5.5574e-06,-1.99e-06,0.0,0 STARLINK-5417,1 54805U 22175AZ  24068.33318223 -.00000199  00000-0  55574-5 0  9995,2 54805  53.2169  72.0144 0001399  90.0171 270.0981 15.08843141 69724,6917.871,95.437,540.704,538.768,0.0
54805.0,STARLINK-5417,PAYLOAD,2024-03-08 17:32:05,15.0884207,0.0001353,53.217,70.2297,96.3813,263.7333,-4.49e-05,-1.002e-05,0.0,0 STARLINK-5417,1 54805U 22175AZ  24068.73062341 -.00001002  00000-0 -44900-4 0  9991,2 54805  53.2170  70.2297 0001353  96.3813 263.7333 15.08842070 67624,6917.874,95.437,540.675,538.803,0.0
54805.0,STARLINK-5417,PAYLOAD,2024-03-09 06:15:10,15.08841797,0.000136,53.2171,67.8515,94.0738,266.041,1.7798e-06,-2.6e-06,0.0,0 STARLINK-5417,1 54805U 22175AZ  24069.26054265 -.00000260  00000-0  17798-5 0  9996,2 54805  53.2171  67.8515 0001360  94.0738 266.0410 15.08841797 69864,6917.875,95.437,540.681,538.799,0.0
54805.0,STARLINK-5417,PAYLOAD,2024-03-09 17:22:52,15.08843342,0.0001467,53.2183,65.7701,92.9654,267.1506,-2.813e-06,-3.33e-06,0.0,0 STARLINK-5417,1 54805U 22175AZ  24069.72422095 -.00000333  00000-0 -28130-5 0  9991,2 54805  53.2183  65.7701 0001467  92.9654 267.1506 15.08843342 69937,6917.87,95.437,540.75,538.72,0.0
54805.0,STARLINK-5417,PAYLOAD,2024-03-10 04:30:34,15.08841581,0.0001325,53.2178,63.6888,91.9491,268.1652,6.2163e-05,7.02e-06,0.0,0 STARLINK-5417,1 54805U 22175AZ  24070.18789933  .00000702  00000-0  62163-4 0  9991,2 54805  53.2178  63.6888 0001325  91.9491 268.1652 15.08841581 67849,6917.876,95.437,540.657,538.824,0.0
54805.0,STARLINK-5417,PAYLOAD,2024-03-10 09:16:43,15.08848395,0.000144,53.2179,62.7965,93.047,267.0687,2.7961e-05,1.57e-06,0.0,0 STARLINK-5417,1 54805U 22175AZ  24070.38661571  .00000157  00000-0  27961-4 0  9991,2 54805  53.2179  62.7965 0001440  93.0470 267.0687 15.08848395 70035,6917.855,95.437,540.716,538.724,0.0
54805.0,STARLINK-5417,PAYLOAD,2024-03-11 05:56:43,15.08889852,0.0001017,53.2167,58.9273,81.259,278.8517,-0.00071828,-0.00011716,0.0,0 STARLINK-5417,1 54805U 22175AZ  24071.24772705 -.00011716  00000-0 -71828-3 0  9994,2 54805  53.2167  58.9273 0001017  81.2590 278.8517 15.08889852 68002,6917.728,95.434,540.297,538.889,0.0
54805.0,STARLINK-5417,PAYLOAD,2024-03-12 04:12:08,15.08875153,0.0001627,53.2171,54.7641,93.0841,267.0337,-0.00059856,-9.811e-05,0.0,0 STARLINK-5417,1 54805U 22175AZ  24072.17509950 -.00009811  00000-0 -59856-3 0  9997,2 54805  53.2171  54.7641 0001627  93.0841 267.0337 15.08875153 68141,6917.773,95.435,540.763,538.512,0.0
54805.0,STARLINK-5417,PAYLOAD,2024-03-12 08:58:18,15.08834094,0.0001425,53.2175,53.8727,96.8325,263.2829,-4.9993e-05,-1.083e-05,0.0,0 STARLINK-5417,1 54805U 22175AZ  24072.37382988 -.00001083  00000-0 -49993-4 0  9994,2 54805  53.2175  53.8727 0001425  96.8325 263.2829 15.08834094 68170,6917.898,95.438,540.749,538.778,0.0
54805.0,STARLINK-5417,PAYLOAD,2024-03-12 15:19:51,15.08839021,0.000138,53.2176,52.6866,104.269,255.8456,-3.1368e-05,-7.87e-06,0.0,0 STARLINK-5417,1 54805U 22175AZ  24072.63878624 -.00000787  00000-0 -31368-4 0  9997,2 54805  53.2176  52.6866 0001380 104.2690 255.8456 15.08839021 70374,6917.883,95.438,540.703,538.794,0.0
54805.0,STARLINK-5417,PAYLOAD,2024-03-13 05:38:19,15.08838655,0.0001341,53.2175,50.0112,100.6166,259.4977,6.9675e-05,8.21e-06,0.0,0 STARLINK-5417,1 54805U 22175AZ  24073.23494466  .00000821  00000-0  69675-4 0  9991,2 54805  53.2175  50.0112 0001341 100.6166 259.4977 15.08838655 68304,6917.885,95.438,540.677,538.822,0.0
54805.0,STARLINK-5417,PAYLOAD,2024-03-13 15:10:38,15.08818722,0.0001303,53.2175,48.2269,106.4851,253.6284,0.00034957,5.277e-05,0.0,0 STARLINK-5417,1 54805U 22175AZ  24073.63238932  .00005277  00000-0  34957-3 0  9993,2 54805  53.2175  48.2269 0001303 106.4851 253.6284 15.08818722 68365,6917.945,95.439,540.712,538.909,0.0
54805.0,STARLINK-5417,PAYLOAD,2024-03-14 05:29:04,15.08857283,0.0001242,53.2171,45.5503,95.1845,264.9289,0.00015018,2.104e-05,0.0,0 STARLINK-5417,1 54805U 22175AZ  24074.22852793  .00002104  00000-0  15018-3 0  9999,2 54805  53.2171  45.5503 0001242  95.1845 264.9289 15.08857283 68456,6917.828,95.436,540.552,538.833,0.0
54805.0,STARLINK-5417,PAYLOAD,2024-03-14 07:04:27,15.08858775,0.0001254,53.2169,45.2528,95.9137,264.1998,0.00016436,2.33e-05,0.0,0 STARLINK-5417,1 54805U 22175AZ  24074.29476576  .00002330  00000-0  16436-3 0  9993,2 54805  53.2169  45.2528 0001254  95.9137 264.1998 15.08858775 70620,6917.823,95.436,540.555,538.821,0.0
54805.0,STARLINK-5417,PAYLOAD,2024-03-15 05:19:54,15.08829373,0.0001215,53.2172,41.0894,102.9823,257.1305,-0.0001179,-2.163e-05,0.0,0 STARLINK-5417,1 54805U 22175AZ  24075.22215575 -.00002163  00000-0 -11790-3 0  9991,2 54805  53.2172  41.0894 0001215 102.9823 257.1305 15.08829373 68603,6917.913,95.438,540.618,538.937,0.0
54805.0,STARLINK-5417,PAYLOAD,2024-03-15 06:55:17,15.08828266,0.0001281,53.2176,40.7926,92.5578,267.556,-0.00012184,-2.226e-05,0.0,0 STARLINK-5417,1 54805U 22175AZ  24075.28839773 -.00002226  00000-0 -12184-3 0  9997,2 54805  53.2176  40.7926 0001281  92.5578 267.5560 15.08828266 70772,6917.916,95.438,540.667,538.895,0.0
54805.0,STARLINK-5417,PAYLOAD,2024-03-16 03:35:17,15.08847443,0.000132,53.2181,36.933,89.159,270.9553,-9.3173e-05,-1.771e-05,0.0,0 STARLINK-5417,1 54805U 22175AZ  24076.14950716 -.00001771  00000-0 -93173-4 0  9996,2 54805  53.2181  36.9330 0001320  89.1590 270.9553 15.08847443 68746,6917.858,95.437,540.636,538.809,0.0
54805.0,STARLINK-5417,PAYLOAD,2024-03-16 06:46:03,15.08853934,0.000126,53.2183,36.3306,99.5799,260.5336,-5.5101e-05,-1.165e-05,0.0,0 STARLINK-5417,1 54805U 22175AZ  24076.28197996 -.00001165  00000-0 -55101-4 0  9990,2 54805  53.2183  36.3306 0001260  99.5799 260.5336 15.08853934 68762,6917.838,95.437,540.574,538.831,0.0
54805.0,STARLINK-5417,PAYLOAD,2024-03-16 21:04:32,15.0883153,0.0001767,53.2193,33.6543,90.563,269.5564,0.00013528,1.865e-05,0.0,0 STARLINK-5417,1 54805U 22175AZ  24076.87814892  .00001865  00000-0  13528-3 0  9997,2 54805  53.2193  33.6543 0001767  90.5630 269.5564 15.08831530 68853,6917.906,95.438,540.994,538.549,0.0
54805.0,STARLINK-5417,PAYLOAD,2024-03-17 03:26:04,15.08832145,0.0001725,53.2195,32.4665,88.4243,271.6946,0.00015226,2.135e-05,0.0,0 STARLINK-5417,1 54805U 22175AZ  24077.14310867  .00002135  00000-0  15226-3 0  9999,2 54805  53.2195  32.4665 0001725  88.4243 271.6946 15.08832145 71054,6917.904,95.438,540.963,538.576,0.0
54805.0,STARLINK-5417,PAYLOAD,2024-03-17 20:55:19,15.08843111,0.0001748,53.2194,29.1966,102.0353,258.0835,-2.9116e-06,-3.34e-06,0.0,0 STARLINK-5417,1 54805U 22175AZ  24077.87174883 -.00000334  00000-0 -29116-5 0  9991,2 54805  53.2194  29.1966 0001748 102.0353 258.0835 15.08843111 71163,6917.871,95.437,540.945,538.527,0.0
54805.0,STARLINK-5417,PAYLOAD,2024-03-18 03:16:51,15.08843312,0.0001744,53.2199,28.0072,108.4895,251.6287,-3.0391e-06,-3.36e-06,0.0,0 STARLINK-5417,1 54805U 22175AZ  24078.13670753 -.00000336  00000-0 -30391-5 0  9997,2 54805  53.2199  28.0072 0001744 108.4895 251.6287 15.08843312 69048,6917.87,95.437,540.942,538.529,0.0
54805.0,STARLINK-5417,PAYLOAD,2024-03-18 06:27:37,15.08845938,0.0001616,53.2191,27.4107,104.3151,255.802,2.1703e-05,5.7e-07,0.0,0 STARLINK-5417,1 54805U 22175AZ  24078.26918452  .00000057  00000-0  21703-4 0  9996,2 54805  53.2191  27.4107 0001616 104.3151 255.8020 15.08845938 71220,6917.862,95.437,540.845,538.609,0.0
54805.0,STARLINK-5417,PAYLOAD,2024-03-19 06:18:24,15.08848638,0.0001329,53.2194,22.9477,96.4748,263.6396,4.9559e-06,-2.09e-06,0.0,0 STARLINK-5417,1 54805U 22175AZ  24079.26278213 -.00000209  00000-0  49559-5 0  9991,2 54805  53.2194  22.9477 0001329  96.4748 263.6396 15.08848638 69216,6917.854,95.437,540.638,538.8,0.0
54805.0,STARLINK-5417,PAYLOAD,2024-03-20 01:23:02,15.0884419,0.0001374,53.2194,19.3806,87.9048,272.2101,1.7662e-06,-2.6e-06,0.0,0 STARLINK-5417,1 54805U 22175AZ  24080.05766470 -.00000260  00000-0  17662-5 0  9994,2 54805  53.2194  19.3806 0001374  87.9048 272.2101 15.08844190 69332,6917.868,95.437,540.683,538.782,0.0
54805.0,STARLINK-5417,PAYLOAD,2024-03-20 04:33:47,15.08851306,0.0001477,53.2204,18.7849,98.291,261.825,5.4351e-05,5.77e-06,0.0,0 STARLINK-5417,1 54805U 22175AZ  24080.19013756  .00000577  00000-0  54351-4 0  9996,2 54805  53.2204  18.7849 0001477  98.2910 261.8250 15.08851306 69359,6917.846,95.437,540.733,538.689,0.0
54805.0,STARLINK-5417,PAYLOAD,2024-03-21 02:49:13,15.08836873,0.0001229,53.2194,14.6255,95.8595,264.2538,-8.8826e-05,-1.701e-05,0.0,0 STARLINK-5417,1 54805U 22175AZ  24081.11751506 -.00001701  00000-0 -88826-4 0  9997,2 54805  53.2194  14.6255 0001229  95.8595 264.2538 15.08836873 69493,6917.89,95.438,540.605,538.905,0.0
54805.0,STARLINK-5417,PAYLOAD,2024-03-21 12:21:31,15.08838012,0.0001161,53.2191,12.8387,82.7184,277.3941,-2.1367e-05,-6.28e-06,0.0,0 STARLINK-5417,1 54805U 22175AZ  24081.51495362 -.00000628  00000-0 -21367-4 0  9990,2 54805  53.2191  12.8387 0001161  82.7184 277.3941 15.08838012 71718,6917.886,95.438,540.555,538.948,0.0
54805.0,STARLINK-5417,PAYLOAD,2024-03-22 04:15:21,15.0885827,0.0001313,53.2195,9.8653,91.444,268.6702,6.5806e-05,7.6e-06,0.0,0 STARLINK-5417,1 54805U 22175AZ  24082.17733737  .00000760  00000-0  65806-4 0  9995,2 54805  53.2195   9.8653 0001313  91.4440 268.6702 15.08858270 69651,6917.825,95.436,540.598,538.781,0.0
